var structperturb_1_1ClassicalOrbitalElements =
[
    [ "ClassicalOrbitalElements", "structperturb_1_1ClassicalOrbitalElements.html#a1d46fa7fe48786091ef6ee2717440fa1", null ],
    [ "arg_of_latitude", "structperturb_1_1ClassicalOrbitalElements.html#a456d43280241689b7c61da26a2f3c7c6", null ],
    [ "arg_of_perigee", "structperturb_1_1ClassicalOrbitalElements.html#a035c54658cfcf566de0035d4a2acebd4", null ],
    [ "eccentricity", "structperturb_1_1ClassicalOrbitalElements.html#a0a990e33def30f40b830bb81341f2c03", null ],
    [ "inclination", "structperturb_1_1ClassicalOrbitalElements.html#accec745d2fec194f43a765a6934bdf47", null ],
    [ "longitude_of_periapsis", "structperturb_1_1ClassicalOrbitalElements.html#a49632af3c22e695a59d1071e3869ebcd", null ],
    [ "mean_anomaly", "structperturb_1_1ClassicalOrbitalElements.html#a5e34789f06d303dac727f92360e50699", null ],
    [ "raan", "structperturb_1_1ClassicalOrbitalElements.html#af482a9670cf8a4bd2ef7da98b7daddf2", null ],
    [ "semilatus_rectum", "structperturb_1_1ClassicalOrbitalElements.html#a0443af1e2f081d4faae12db769522755", null ],
    [ "semimajor_axis", "structperturb_1_1ClassicalOrbitalElements.html#a322ec4a74a2f7df8ad2964972259d0b8", null ],
    [ "true_anomaly", "structperturb_1_1ClassicalOrbitalElements.html#ad9aba315cc0ad064937e1b962ba3d2a0", null ],
    [ "true_longitude", "structperturb_1_1ClassicalOrbitalElements.html#a866d848eac3b6db9e3e98413c563f355", null ]
];